start=new Date('2022-03-02T00:00:00.000Z').valueOf();
sats=[{"NORAD_CAT_ID":"47352","REF_FRAME":"TEME","ECCENTRICITY":"0.00014420","PERIOD":"95.592","ELEMENT_SET_NO":"999","TLE_LINE2":"2 47352  53.0543 175.6663 0001442  58.8163 301.2967 15.06396573 61649","EPOCH":"2022-03-01T19:30:01.566432","MEAN_MOTION_DOT":"0.00000022","COUNTRY_CODE":"US","TLE_LINE1":"1 47352U 21005D   22060.81251813  .00000022  00000-0  20396-4 0  9996","EPHEMERIS_TYPE":"0","PERIAPSIS":"546.225","MEAN_MOTION_DDOT":"0.0000000000000","REV_AT_EPOCH":"6164","INCLINATION":"53.0543","SEMIMAJOR_AXIS":"6925.359","TIME_SYSTEM":"UTC","OBJECT_ID":"2021-005D","CLASSIFICATION_TYPE":"U","DECAY_DATE":null,"RCS_SIZE":"LARGE","APOAPSIS":"548.223","MEAN_ELEMENT_THEORY":"SGP4","FILE":"3338635","BSTAR":"0.00002039600000","OBJECT_TYPE":"PAYLOAD","MEAN_ANOMALY":"301.2967","SITE":"AFETR","GP_ID":"197543039","RA_OF_ASC_NODE":"175.6663","LAUNCH_DATE":"2021-01-20","ARG_OF_PERICENTER":"58.8163","CENTER_NAME":"EARTH","OBJECT_NAME":"STARLINK-2034","MEAN_MOTION":"15.06396573"},{"MEAN_MOTION_DDOT":"0.0000000000000","EPHEMERIS_TYPE":"0","TLE_LINE1":"1 47353U 21005E   22060.56878844  .00001954  00000-0  14999-3 0  9994","COUNTRY_CODE":"US","PERIAPSIS":"546.157","OBJECT_ID":"2021-005E","CLASSIFICATION_TYPE":"U","REV_AT_EPOCH":"6238","INCLINATION":"53.0545","SEMIMAJOR_AXIS":"6925.327","TIME_SYSTEM":"UTC","REF_FRAME":"TEME","PERIOD":"95.592","ECCENTRICITY":"0.00014950","NORAD_CAT_ID":"47353","EPOCH":"2022-03-01T13:39:03.321216","MEAN_MOTION_DOT":"0.00001954","ELEMENT_SET_NO":"999","TLE_LINE2":"2 47353  53.0545 121.7553 0001495  51.8782 308.2341 15.06407043 62380","LAUNCH_DATE":"2021-01-20","RA_OF_ASC_NODE":"121.7553","MEAN_MOTION":"15.06407043","ARG_OF_PERICENTER":"51.8782","OBJECT_NAME":"STARLINK-2045","CENTER_NAME":"EARTH","MEAN_ELEMENT_THEORY":"SGP4","DECAY_DATE":null,"RCS_SIZE":"LARGE","APOAPSIS":"548.227","OBJECT_TYPE":"PAYLOAD","MEAN_ANOMALY":"308.2341","SITE":"AFETR","GP_ID":"197541787","FILE":"3338635","BSTAR":"0.00014999000000"},{"EPOCH":"2022-03-01T10:46:32.882016","MEAN_MOTION_DOT":"0.00001489","ELEMENT_SET_NO":"999","TLE_LINE2":"2 47354  53.0531 142.3013 0001363  58.3764 301.7358 15.06402562 62086","REF_FRAME":"TEME","PERIOD":"95.592","ECCENTRICITY":"0.00013630","NORAD_CAT_ID":"47354","OBJECT_ID":"2021-005F","CLASSIFICATION_TYPE":"U","INCLINATION":"53.0531","REV_AT_EPOCH":"6208","SEMIMAJOR_AXIS":"6925.341","TIME_SYSTEM":"UTC","MEAN_MOTION_DDOT":"0.0000000000000","EPHEMERIS_TYPE":"0","TLE_LINE1":"1 47354U 21005F   22060.44899169  .00001489  00000-0  11884-3 0  9998","COUNTRY_CODE":"US","PERIAPSIS":"546.262","OBJECT_TYPE":"PAYLOAD","SITE":"AFETR","MEAN_ANOMALY":"301.7358","GP_ID":"197491072","FILE":"3337314","BSTAR":"0.00011884000000","MEAN_ELEMENT_THEORY":"SGP4","DECAY_DATE":null,"RCS_SIZE":"LARGE","APOAPSIS":"548.150","MEAN_MOTION":"15.06402562","ARG_OF_PERICENTER":"58.3764","CENTER_NAME":"EARTH","OBJECT_NAME":"STARLINK-2046","LAUNCH_DATE":"2021-01-20","RA_OF_ASC_NODE":"142.3013"},{"CLASSIFICATION_TYPE":"U","OBJECT_ID":"2021-005G","SEMIMAJOR_AXIS":"6925.355","TIME_SYSTEM":"UTC","INCLINATION":"53.0427","REV_AT_EPOCH":"6229","MEAN_MOTION_DDOT":"0.0000000000000","TLE_LINE1":"1 47355U 21005G   22060.47064416  .00001797  00000-0  13948-3 0  9996","EPHEMERIS_TYPE":"0","COUNTRY_CODE":"US","PERIAPSIS":"546.171","EPOCH":"2022-03-01T11:17:43.655424","MEAN_MOTION_DOT":"0.00001797","TLE_LINE2":"2 47355  53.0427 127.2749 0001515  63.4420 296.6724 15.06397971 62293","ELEMENT_SET_NO":"999","PERIOD":"95.592","ECCENTRICITY":"0.00015150","REF_FRAME":"TEME","NORAD_CAT_ID":"47355","MEAN_MOTION":"15.06397971","ARG_OF_PERICENTER":"63.4420","OBJECT_NAME":"STARLINK-2047","CENTER_NAME":"EARTH","LAUNCH_DATE":"2021-01-20","RA_OF_ASC_NODE":"127.2749","MEAN_ANOMALY":"296.6724","SITE":"AFETR","GP_ID":"197491323","OBJECT_TYPE":"PAYLOAD","FILE":"3337314","BSTAR":"0.00013948000000","MEAN_ELEMENT_THEORY":"SGP4","APOAPSIS":"548.269","RCS_SIZE":"LARGE","DECAY_DATE":null},{"MEAN_MOTION_DDOT":"0.0000000000000","PERIAPSIS":"545.964","EPHEMERIS_TYPE":"0","TLE_LINE1":"1 47356U 21005H   22060.71576592 -.00000642  00000-0 -24219-4 0  9991","COUNTRY_CODE":"US","CLASSIFICATION_TYPE":"U","OBJECT_ID":"2021-005H","TIME_SYSTEM":"UTC","SEMIMAJOR_AXIS":"6925.373","INCLINATION":"53.0547","REV_AT_EPOCH":"6205","PERIOD":"95.593","ECCENTRICITY":"0.00018390","REF_FRAME":"TEME","NORAD_CAT_ID":"47356","MEAN_MOTION_DOT":"-0.00000642","EPOCH":"2022-03-01T17:10:42.175488","TLE_LINE2":"2 47356  53.0547 146.1115 0001839  60.9618 299.1555 15.06392044 62054","ELEMENT_SET_NO":"999","LAUNCH_DATE":"2021-01-20","RA_OF_ASC_NODE":"146.1115","MEAN_MOTION":"15.06392044","OBJECT_NAME":"STARLINK-2049","CENTER_NAME":"EARTH","ARG_OF_PERICENTER":"60.9618","MEAN_ELEMENT_THEORY":"SGP4","APOAPSIS":"548.512","DECAY_DATE":null,"RCS_SIZE":"LARGE","GP_ID":"197542540","MEAN_ANOMALY":"299.1555","SITE":"AFETR","OBJECT_TYPE":"PAYLOAD","BSTAR":"-0.00002421900000","FILE":"3338635"},{"ELEMENT_SET_NO":"999","TLE_LINE2":"2 47357  53.0537 175.7542 0001362  61.5811 298.5315 15.06397934 61643","EPOCH":"2022-03-01T18:58:10.695648","MEAN_MOTION_DOT":"0.00000139","NORAD_CAT_ID":"47357","REF_FRAME":"TEME","PERIOD":"95.592","ECCENTRICITY":"0.00013620","INCLINATION":"53.0537","REV_AT_EPOCH":"6164","SEMIMAJOR_AXIS":"6925.355","TIME_SYSTEM":"UTC","OBJECT_ID":"2021-005J","CLASSIFICATION_TYPE":"U","EPHEMERIS_TYPE":"0","TLE_LINE1":"1 47357U 21005J   22060.79040157  .00000139  00000-0  28241-4 0  9991","COUNTRY_CODE":"US","PERIAPSIS":"546.277","MEAN_MOTION_DDOT":"0.0000000000000","FILE":"3338635","BSTAR":"0.00002824100000","OBJECT_TYPE":"PAYLOAD","MEAN_ANOMALY":"298.5315","SITE":"AFETR","GP_ID":"197541288","RCS_SIZE":"LARGE","DECAY_DATE":null,"APOAPSIS":"548.163","MEAN_ELEMENT_THEORY":"SGP4","ARG_OF_PERICENTER":"61.5811","OBJECT_NAME":"STARLINK-2050","CENTER_NAME":"EARTH","MEAN_MOTION":"15.06397934","RA_OF_ASC_NODE":"175.7542","LAUNCH_DATE":"2021-01-20"},{"COUNTRY_CODE":"US","TLE_LINE1":"1 47358U 21005K   22060.66047997  .00000035  00000-0  21266-4 0  9992","EPHEMERIS_TYPE":"0","PERIAPSIS":"546.237","MEAN_MOTION_DDOT":"0.0000000000000","SEMIMAJOR_AXIS":"6925.378","TIME_SYSTEM":"UTC","INCLINATION":"53.0550","REV_AT_EPOCH":"6204","CLASSIFICATION_TYPE":"U","OBJECT_ID":"2021-005K","NORAD_CAT_ID":"47358","PERIOD":"95.593","ECCENTRICITY":"0.00014520","REF_FRAME":"TEME","TLE_LINE2":"2 47358  53.0550 146.3498 0001452  72.4832 287.6316 15.06390410 62044","ELEMENT_SET_NO":"999","EPOCH":"2022-03-01T15:51:05.469408","MEAN_MOTION_DOT":"0.00000035","RA_OF_ASC_NODE":"146.3498","LAUNCH_DATE":"2021-01-20","ARG_OF_PERICENTER":"72.4832","OBJECT_NAME":"STARLINK-2055","CENTER_NAME":"EARTH","MEAN_MOTION":"15.06390410","APOAPSIS":"548.249","RCS_SIZE":"LARGE","DECAY_DATE":null,"MEAN_ELEMENT_THEORY":"SGP4","FILE":"3338635","BSTAR":"0.00002126600000","MEAN_ANOMALY":"287.6316","SITE":"AFETR","GP_ID":"197541538","OBJECT_TYPE":"PAYLOAD"},{"PERIOD":"95.593","ECCENTRICITY":"0.00013490","REF_FRAME":"TEME","NORAD_CAT_ID":"47359","MEAN_MOTION_DOT":"-0.00000199","EPOCH":"2022-03-01T16:06:20.924928","TLE_LINE2":"2 47359  53.0538 171.2960 0001349  73.2246 286.8891 15.06390921 61691","ELEMENT_SET_NO":"999","MEAN_MOTION_DDOT":"0.0000000000000","PERIAPSIS":"546.307","TLE_LINE1":"1 47359U 21005L   22060.67107552 -.00000199  00000-0  55478-5 0  9993","COUNTRY_CODE":"US","EPHEMERIS_TYPE":"0","CLASSIFICATION_TYPE":"U","OBJECT_ID":"2021-005L","TIME_SYSTEM":"UTC","SEMIMAJOR_AXIS":"6925.376","INCLINATION":"53.0538","REV_AT_EPOCH":"6169","MEAN_ELEMENT_THEORY":"SGP4","APOAPSIS":"548.176","RCS_SIZE":"LARGE","DECAY_DATE":null,"GP_ID":"197542789","MEAN_ANOMALY":"286.8891","SITE":"AFETR","OBJECT_TYPE":"PAYLOAD","BSTAR":"0.00000554780000","FILE":"3338635","LAUNCH_DATE":"2021-01-20","RA_OF_ASC_NODE":"171.2960","MEAN_MOTION":"15.06390921","OBJECT_NAME":"STARLINK-2069","CENTER_NAME":"EARTH","ARG_OF_PERICENTER":"73.2246"},{"MEAN_MOTION_DDOT":"0.0000000000000","PERIAPSIS":"546.162","TLE_LINE1":"1 47360U 21005M   22060.61117373  .00001282  00000-0  10492-3 0  9999","COUNTRY_CODE":"US","EPHEMERIS_TYPE":"0","CLASSIFICATION_TYPE":"U","OBJECT_ID":"2021-005M","TIME_SYSTEM":"UTC","SEMIMAJOR_AXIS":"6925.329","INCLINATION":"53.0542","REV_AT_EPOCH":"6211","PERIOD":"95.592","ECCENTRICITY":"0.00014910","REF_FRAME":"TEME","NORAD_CAT_ID":"47360","MEAN_MOTION_DOT":"0.00001282","EPOCH":"2022-03-01T14:40:05.410272","TLE_LINE2":"2 47360  53.0542 141.5767 0001491  59.3371 300.7765 15.06406240 62111","ELEMENT_SET_NO":"999","LAUNCH_DATE":"2021-01-20","RA_OF_ASC_NODE":"141.5767","MEAN_MOTION":"15.06406240","CENTER_NAME":"EARTH","OBJECT_NAME":"STARLINK-2070","ARG_OF_PERICENTER":"59.3371","MEAN_ELEMENT_THEORY":"SGP4","APOAPSIS":"548.227","DECAY_DATE":null,"RCS_SIZE":"LARGE","GP_ID":"197543040","MEAN_ANOMALY":"300.7765","SITE":"AFETR","OBJECT_TYPE":"PAYLOAD","BSTAR":"0.00010492000000","FILE":"3338635"},{"ARG_OF_PERICENTER":"62.0633","OBJECT_NAME":"STARLINK-2071","CENTER_NAME":"EARTH","MEAN_MOTION":"15.06393957","RA_OF_ASC_NODE":"147.2016","LAUNCH_DATE":"2021-01-20","FILE":"3337314","BSTAR":"0.00001878200000","OBJECT_TYPE":"PAYLOAD","MEAN_ANOMALY":"298.0501","SITE":"AFETR","GP_ID":"197489820","DECAY_DATE":null,"RCS_SIZE":"LARGE","APOAPSIS":"548.225","MEAN_ELEMENT_THEORY":"SGP4","REV_AT_EPOCH":"6201","INCLINATION":"53.0552","SEMIMAJOR_AXIS":"6925.367","TIME_SYSTEM":"UTC","OBJECT_ID":"2021-005N","CLASSIFICATION_TYPE":"U","EPHEMERIS_TYPE":"0","TLE_LINE1":"1 47361U 21005N   22060.46881032 -.00000002  00000-0  18782-4 0  9994","COUNTRY_CODE":"US","PERIAPSIS":"546.239","MEAN_MOTION_DDOT":"0.0000000000000","ELEMENT_SET_NO":"999","TLE_LINE2":"2 47361  53.0552 147.2016 0001434  62.0633 298.0501 15.06393957 62018","EPOCH":"2022-03-01T11:15:05.211648","MEAN_MOTION_DOT":"-0.00000002","NORAD_CAT_ID":"47361","REF_FRAME":"TEME","ECCENTRICITY":"0.00014340","PERIOD":"95.593"}];
